OBJECT_NAME,OBJECT_ID,EPOCH,MEAN_MOTION,ECCENTRICITY,INCLINATION,RA_OF_ASC_NODE,ARG_OF_PERICENTER,MEAN_ANOMALY,EPHEMERIS_TYPE,CLASSIFICATION_TYPE,NORAD_CAT_ID,ELEMENT_SET_NO,REV_AT_EPOCH,BSTAR,MEAN_MOTION_DOT,MEAN_MOTION_DDOT
TANSAT,2016-081A,2026-06-22T20:50:30.136704,14.59954727,.00193236,98.5369,174.2941,293.8794,66.0380,0,U,41898,999,50545,.68372651E-4,.278E-5,0
JILIN-1 03,2017-002B,2026-06-22T19:15:56.462112,15.41691358,.00073906,97.1951,180.8079,138.3325,221.8487,0,U,41914,999,52272,.24319252E-3,.10187E-3,0
CARTOSAT-2D,2017-008A,2026-06-22T19:44:52.338336,15.19242018,.00042108,97.4105,233.0233,210.9639,149.1348,0,U,41948,999,51843,.16570616E-3,.3424E-4,0
CARTOSAT-2E,2017-036C,2026-06-22T20:10:19.138656,15.19289552,.00022062,97.4269,233.5500,288.9071,71.1925,0,U,42767,999,49900,.16880224E-3,.3494E-4,0
IRIDIUM 113,2017-039A,2026-06-22T16:22:31.178784,14.34217795,.00022743,86.3975,319.8810,89.6691,270.4765,0,U,42803,999,47197,.6569492E-5,.38E-6,0
NORSAT 2,2017-042D,2026-06-22T17:56:32.341056,15.22016416,.00100715,97.4045,347.1001,39.5936,320.6034,0,U,42828,999,48858,.34340285E-3,.7787E-4,0
TECHNOSAT,2017-042E,2026-06-22T16:49:51.648672,15.04990658,.0019324,97.4297,331.1496,77.1054,283.2330,0,U,42829,999,48753,.16899968E-3,.2347E-4,0
FLYING LAPTOP,2017-042G,2026-06-22T20:25:58.163232,15.01178099,.00198232,97.4715,329.1672,103.5162,256.8273,0,U,42831,999,48730,.23950464E-3,.3026E-4,0
WNISAT 1R,2017-042L,2026-06-22T16:31:54.679584,15.01780723,.00116558,97.4837,329.6144,130.4347,229.7897,0,U,42835,999,48733,.12281547E-3,.1544E-4,0
LEMUR-2-GREENBERG,2017-042N,2026-06-22T10:40:54.135264,15.31464866,.00080217,97.3826,354.0459,354.5088,5.6064,0,U,42837,999,48919,.42090804E-3,.12732E-3,0
LEMUR-2-FURIAUS,2017-042R,2026-06-22T10:37:16.096224,15.30397485,.00078213,97.3777,351.9867,52.5630,307.6321,0,U,42840,999,48901,.46355297E-3,.13573E-3,0
CORVUS BC2,2017-042X,2026-06-22T17:00:12.958848,15.06328239,.00147745,97.4077,334.8437,93.4461,266.8457,0,U,42846,999,48789,.17152937E-3,.2468E-4,0
CORVUS BC1,2017-042Y,2026-06-22T16:51:33.905664,15.06492693,.00134894,97.4107,335.6557,72.8173,287.4530,0,U,42847,999,48792,.13792131E-3,.1981E-4,0
VRSS-2,2017-060A,2026-06-22T20:40:48.588672,14.81201254,.00186385,97.6510,211.3329,81.9746,278.3581,0,U,42954,999,46929,.88054962E-4,.637E-5,0
MOHAMMED VI-A,2017-070A,2026-06-22T20:00:18.359712,14.77075342,.00012527,97.9552,246.0870,75.8802,284.2548,0,U,43005,999,46481,.96048165E-4,.627E-5,0
FENGYUN 3D,2017-072A,2026-06-22T18:50:53.522016,14.19739137,.00024442,99.0131,148.3088,53.5510,306.5890,0,U,43010,999,44578,-.80086508E-4,-.216E-5,0
NOAA 20 (JPSS-1),2017-073A,2026-06-22T15:21:56.985696,14.19512605,.00004511,98.7771,113.0544,125.7011,234.4207,0,U,43013,999,44524,.38289387E-4,.37E-6,0
MAKERSAT 0,2017-073D,2026-06-22T09:42:42.728544,15.32242157,.01048684,97.4619,55.9644,254.0472,104.9195,0,U,43016,999,46726,.34975244E-3,.12877E-3,0
RADFXSAT (FOX-1B),2017-073E,2026-06-22T13:34:44.862528,15.12782562,.01489699,97.4701,40.6703,310.5186,48.3145,0,U,43017,999,46620,.25601989E-3,.5824E-4,0
JILIN-1 04,2017-074A,2026-06-22T19:04:44.050656,15.42566781,.00046137,97.4857,283.5574,160.6560,199.4863,0,U,43022,999,47513,.26190446E-3,.11294E-3,0
JILIN-1 05,2017-074B,2026-06-22T19:07:08.172768,15.33950341,.00048638,97.4863,280.0269,192.7880,167.3240,0,U,43023,999,47486,.19473354E-3,.6316E-4,0
JILIN-1 06,2017-074C,2026-06-22T20:01:10.910784,15.33748989,.00061684,97.4790,277.0674,207.8787,152.2126,0,U,43024,999,47470,.15950926E-3,.5126E-4,0
IRIDIUM 116,2017-083C,2026-06-22T15:45:59.108832,14.34218155,.00020773,86.3969,319.7139,100.9228,259.2202,0,U,43072,999,44495,.23483754E-4,.86E-6,0
IRIDIUM 130,2017-083D,2026-06-22T16:40:46.811136,14.34216912,.00019728,86.3976,319.9737,95.5795,264.5626,0,U,43073,999,44490,.58458644E-4,.183E-5,0
LKW-2,2017-084A,2026-06-22T20:42:52.336800,15.26399039,.00017002,97.1191,213.3937,160.7455,199.3849,0,U,43080,999,47255,.17173168E-3,.44E-4,0
SUPERVIEW-1 03,2018-002A,2026-06-22T19:42:37.368576,15.39430058,.00474377,97.3131,258.6502,159.5264,200.7898,0,U,43099,999,46923,.39284225E-3,.15927E-3,0
CARTOSAT-2F,2018-004A,2026-06-22T19:22:01.021728,15.19249410,.00012765,97.4787,233.3866,175.5498,184.5748,0,U,43111,999,46818,.13059752E-3,.2684E-4,0
LKW-3,2018-006A,2026-06-22T20:30:30.123648,15.35347230,.00017611,97.6619,334.6509,291.8193,68.2862,0,U,43146,999,46958,.3160935E-3,.1077E-3,0
