TANSAT                  
1 41898U 16081A   26173.86840436  .00000278  00000+0  68373-4 0  9991
2 41898  98.5369 174.2941 0019323 293.8794  66.0380 14.59954727505455
JILIN-1 03              
1 41914U 17002B   26173.80273683  .00010187  00000+0  24319-3 0  9993
2 41914  97.1951 180.8079 0007390 138.3325 221.8487 15.41691358522723
CARTOSAT-2D             
1 41948U 17008A   26173.82282799  .00003424  00000+0  16571-3 0  9993
2 41948  97.4105 233.0233 0004210 210.9639 149.1348 15.19242018518431
CARTOSAT-2E             
1 42767U 17036C   26173.84049929  .00003494  00000+0  16880-3 0  9992
2 42767  97.4269 233.5500 0002206 288.9071  71.1925 15.19289552499002
IRIDIUM 113             
1 42803U 17039A   26173.68230531  .00000038  00000+0  65695-5 0  9990
2 42803  86.3975 319.8810 0002274  89.6691 270.4765 14.34217795471973
NORSAT 2                
1 42828U 17042D   26173.74759654  .00007787  00000+0  34340-3 0  9999
2 42828  97.4045 347.1001 0010071  39.5936 320.6034 15.22016416488584
TECHNOSAT               
1 42829U 17042E   26173.70129223  .00002347  00000+0  16900-3 0  9998
2 42829  97.4297 331.1496 0019324  77.1054 283.2330 15.04990658487530
FLYING LAPTOP           
1 42831U 17042G   26173.85136763  .00003026  00000+0  23950-3 0  9992
2 42831  97.4715 329.1672 0019823 103.5162 256.8273 15.01178099487300
WNISAT 1R               
1 42835U 17042L   26173.68882731  .00001544  00000+0  12282-3 0  9999
2 42835  97.4837 329.6144 0011655 130.4347 229.7897 15.01780723487334
LEMUR-2-GREENBERG       
1 42837U 17042N   26173.44507101  .00012732  00000+0  42091-3 0  9992
2 42837  97.3826 354.0459 0008021 354.5088   5.6064 15.31464866489191
LEMUR-2-FURIAUS         
1 42840U 17042R   26173.44254741  .00013573  00000+0  46355-3 0  9996
2 42840  97.3777 351.9867 0007821  52.5630 307.6321 15.30397485489017
CORVUS BC2              
1 42846U 17042X   26173.70848332  .00002468  00000+0  17153-3 0  9991
2 42846  97.4077 334.8437 0014774  93.4461 266.8457 15.06328239487895
CORVUS BC1              
1 42847U 17042Y   26173.70247576  .00001981  00000+0  13792-3 0  9999
2 42847  97.4107 335.6557 0013489  72.8173 287.4530 15.06492693487926
VRSS-2                  
1 42954U 17060A   26173.86167348  .00000637  00000+0  88055-4 0  9995
2 42954  97.6510 211.3329 0018638  81.9746 278.3581 14.81201254469298
MOHAMMED VI-A           
1 43005U 17070A   26173.83354583  .00000627  00000+0  96048-4 0  9990
2 43005  97.9552 246.0870 0001252  75.8802 284.2548 14.77075342464814
FENGYUN 3D              
1 43010U 17072A   26173.78534169 -.00000216  00000+0 -80087-4 0  9994
2 43010  99.0131 148.3088 0002444  53.5510 306.5890 14.19739137445782
NOAA 20 (JPSS-1)        
1 43013U 17073A   26173.64024289  .00000037  00000+0  38289-4 0  9996
2 43013  98.7771 113.0544 0000451 125.7011 234.4207 14.19512605445242
MAKERSAT 0              
1 43016U 17073D   26173.40466121  .00012877  00000+0  34975-3 0  9990
2 43016  97.4619  55.9644 0104868 254.0472 104.9195 15.32242157467262
RADFXSAT (FOX-1B)       
1 43017U 17073E   26173.56579702  .00005824  00000+0  25602-3 0  9999
2 43017  97.4701  40.6703 0148969 310.5186  48.3145 15.12782562466208
JILIN-1 04              
1 43022U 17074A   26173.79495429  .00011294  00000+0  26190-3 0  9995
2 43022  97.4857 283.5574 0004613 160.6560 199.4863 15.42566781475130
JILIN-1 05              
1 43023U 17074B   26173.79662237  .00006316  00000+0  19473-3 0  9994
2 43023  97.4863 280.0269 0004863 192.7880 167.3240 15.33950341474860
JILIN-1 06              
1 43024U 17074C   26173.83415406  .00005126  00000+0  15951-3 0  9999
2 43024  97.4790 277.0674 0006168 207.8787 152.2126 15.33748989474702
IRIDIUM 116             
1 43072U 17083C   26173.65693413  .00000086  00000+0  23484-4 0  9999
2 43072  86.3969 319.7139 0002077 100.9228 259.2202 14.34218155444952
IRIDIUM 130             
1 43073U 17083D   26173.69498624  .00000183  00000+0  58459-4 0  9999
2 43073  86.3976 319.9737 0001972  95.5795 264.5626 14.34216912444901
LKW-2                   
1 43080U 17084A   26173.86310575  .00004400  00000+0  17173-3 0  9998
2 43080  97.1191 213.3937 0001700 160.7455 199.3849 15.26399039472552
SUPERVIEW-1 03          
1 43099U 18002A   26173.82126584  .00015927  00000+0  39284-3 0  9993
2 43099  97.3131 258.6502 0047437 159.5264 200.7898 15.39430058469232
CARTOSAT-2F             
1 43111U 18004A   26173.80695627  .00002684  00000+0  13060-3 0  9997
2 43111  97.4787 233.3866 0001276 175.5498 184.5748 15.19249410468180
LKW-3                   
1 43146U 18006A   26173.85451532  .00010770  00000+0  31609-3 0  9991
2 43146  97.6619 334.6509 0001761 291.8193  68.2862 15.35347230469583
